1 27376U 02005E   06008.13603850 -.00000407  00000-0 -77690-4 0  9998
2 27376 086.5754 233.0645 0002538 080.9529 279.2002 14.66602075209062
1 27376U 02005E   06008.68187208 -.00000273 +00000-0 -53419-4 0  9996
2 27376 086.5753 232.8363 0002505 081.1650 278.9854 14.66602320209140
1 27376U 02005E   06009.15947721 -.00000081  00000-0 -18898-4 0  9992
2 27376 086.5753 232.6366 0002520 083.2978 276.8558 14.66602965209215
1 27376U 02005E   06009.15947721 -.00000081  00000-0 -18898-4 0  9992
2 27376 086.5753 232.6366 0002520 083.2978 276.8558 14.66602965209215
1 27376U 02005E   06009.63708155 +.00000089 +00000-0 +11778-4 0  9997
2 27376 086.5752 232.4368 0002509 080.5659 279.5870 14.66603743209286
1 27376U 02005E   06010.11468539  .00000131  00000-0  19294-4 0  9990
2 27376 086.5757 232.2374 0002477 083.3173 276.8331 14.66604086209353
1 27376U 02005E   06010.66051908 +.00000137 +00000-0 +20428-4 0  9995
2 27376 086.5754 232.0092 0002493 081.2727 278.8773 14.66604289209431
1 27376U 02005E   06011.13812357  .00000084  00000-0  10906-4 0  9992
2 27376 086.5756 231.8095 0002467 080.0990 280.0498 14.66604151209508
1 27376U 02005E   06011.54749903  .00000141  00000-0  21106-4 0  9991
2 27376 086.5756 231.6382 0002462 078.5523 281.5980 14.66604504209564
1 27376U 02005E   06011.68395723 +.00000113 +00000-0 +16198-4 0  9997
2 27376 086.5755 231.5812 0002465 079.2061 280.9422 14.66604347209589
1 27376U 02005E   06012.16156191  .00000178  00000-0  27868-4 0  9992
2 27376 086.5757 231.3817 0002469 080.8902 279.2614 14.66604822209650
1 27376U 02005E   06012.63916586 +.00000179 +00000-0 +27960-4 0  9990
2 27376 086.5754 231.1821 0002477 079.4391 280.7104 14.66604998209728
1 27376U 02005E   06013.52614484  .00000183  00000-0  28685-4 0  9991
2 27376 086.5757 230.8113 0002448 078.8216 281.3264 14.66605334209851
1 27376U 02005E   06013.66260335 +.00000103 +00000-0 +14358-4 0  9992
2 27376 086.5753 230.7544 0002463 080.2401 279.9074 14.66604933209872
1 27376U 02005E   06014.14020789  .00000101  00000-0  14012-4 0  9998
2 27376 086.5753 230.5547 0002450 080.8182 279.3308 14.66605009209948
1 27376U 02005E   06014.68604142 +.00000150 +00000-0 +22723-4 0  9990
2 27376 086.5750 230.3265 0002443 078.7945 281.3553 14.66605342210021
1 27376U 02005E   06015.09541599  .00000119  00000-0  17181-4 0  9999
2 27376 086.5753 230.1555 0002433 079.4790 280.6690 14.66605378210088
1 27376U 02005E   06015.64124952 +.00000078 +00000-0 +98091-5 0  9994
2 27376 086.5744 229.9275 0002460 079.0324 281.1161 14.66605313210169
1 27376U 02005E   06016.11885366  .00000062  00000-0  70123-5 0  9999
2 27376 086.5743 229.7277 0002446 079.1806 280.9681 14.66605350210231
1 27376U 02005E   06016.66468708 +.00000131 +00000-0 +19395-4 0  9996
2 27376 086.5741 229.4995 0002455 080.5649 279.5853 14.66605672210315
1 27376U 02005E   06017.14229085  .00000154  00000-0  23484-4 0  9992
2 27376 086.5746 229.3000 0002457 080.7296 279.4197 14.66605909210388
1 27376U 02005E   06017.68812399 +.00000118 +00000-0 +17042-4 0  9990
2 27376 086.5740 229.0718 0002444 080.9155 279.2330 14.66605838210464
1 27376U 02005E   06018.09749898  .00000064  00000-0  71975-5 0  9995
2 27376 086.5743 228.9008 0002445 082.2835 277.8661 14.66605738210525
1 27376U 02005E   06018.64333214 +.00000032 +00000-0 +14334-5 0  9998
2 27376 086.5738 228.6727 0002463 081.0288 279.1197 14.66605622210603
1 27376U 02005E   06019.12093640  .00000048  00000-0  44731-5 0  9999
2 27376 086.5738 228.4729 0002459 081.8877 278.2623 14.66605714210673
1 27376U 02005E   06019.12093640  .00000048  00000-0  44731-5 0  9999
2 27376 086.5738 228.4729 0002459 081.8877 278.2623 14.66605714210673
1 27376U 02005E   06019.59854036 +.00000062 +00000-0 +70094-5 0  9991
2 27376 086.5735 228.2731 0002465 079.3304 280.8198 14.66605924210742
1 27376U 02005E   06020.14437306  .00000135  00000-0  20071-4 0  9991
2 27376 086.5740 228.0452 0002444 079.6404 280.5090 14.66606356210824
1 27376U 02005E   06020.62197683 +.00000066 +00000-0 +75797-5 0  9994
2 27376 086.5737 227.8454 0002479 077.7011 282.4468 14.66606143210891
1 27376U 02005E   06021.23603892  .00000132  00000-0  19611-4 0  9992
2 27376 086.5739 227.5885 0002462 079.3355 280.8136 14.66606539210982
1 27376U 02005E   06021.64541363 +.00000132 +00000-0 +19492-4 0  9998
2 27376 086.5740 227.4173 0002463 078.5395 281.6096 14.66606594211042
1 27376U 02005E   06022.12301743  .00000199  00000-0  31699-4 0  9994
2 27376 086.5747 227.2181 0002478 080.7470 279.4045 14.66607084211113
1 27376U 02005E   06022.66884938 +.00000270 +00000-0 +44365-4 0  9999
2 27376 086.5745 226.9897 0002447 080.1558 279.9936 14.66607688211190
1 27376U 02005E   06023.07822366  .00000249  00000-0  40590-4 0  9994
2 27376 086.5747 226.8187 0002441 080.1382 280.0109 14.66607817211258
1 27376U 02005E   06023.62405628 +.00000145 +00000-0 +21851-4 0  9997
2 27376 086.5746 226.5905 0002438 080.5808 279.5675 14.66607494211336
1 27376U 02005E   06024.10165992  .00000166  00000-0  25639-4 0  9999
2 27376 086.5747 226.3908 0002415 082.2708 277.8792 14.66607708211408
1 27376U 02005E   06024.51103408  .00000277  00000-0  45693-4 0  9993
2 27376 086.5747 226.2196 0002415 080.8387 279.3134 14.66608512211460
1 27376U 02005E   06024.92040759 +.00000183 +00000-0 +28779-4 0  9999
2 27376 086.5747 226.0482 0002417 079.9876 280.1574 14.66608066211529
1 27376U 02005E   06025.53446931  .00000230  00000-0  37276-4 0  9994
2 27376 086.5750 225.7917 0002405 079.0704 281.0790 14.66608654211613
1 27376U 02005E   06025.87561423 +.00000241 +00000-0 +39213-4 0  9990
2 27376 086.5744 225.6488 0002401 079.1683 280.9802 14.66608803211664
1 27376U 02005E   06026.14853027  .00000196  00000-0  31044-4 0  9998
2 27376 086.5745 225.5347 0002393 079.8191 280.3292 14.66608697211702
1 27376U 02005E   06026.62613340 +.00000180 +00000-0 +28134-4 0  9992
2 27376 086.5744 225.3349 0002402 078.8744 281.2734 14.66608746211778
1 27376U 02005E   06027.10373661  .00000211  00000-0  33770-4 0  9992
2 27376 086.5746 225.1354 0002396 079.4348 280.7149 14.66609072211848
1 27376U 02005E   06027.92248546 +.00000003 +00000-0 -37274-5 0  9999
2 27376 086.5742 224.7932 0002445 079.3233 280.8258 14.66608120211966
1 27376U 02005E   06028.12717257 -.00000229  00000-0 -45604-4 0  9998
2 27376 086.5745 224.7078 0002372 080.4906 279.6540 14.66606909211995
1 27376U 02005E   06028.53654788 -.00000321  00000-0 -62100-4 0  9995
2 27376 086.5744 224.5367 0002391 080.7521 279.3939 14.66606160212056
1 27376U 02005E   06028.60477748 -.00000464 +00000-0 -87955-4 0  9995
2 27376 086.5742 224.5082 0002425 080.9290 279.2181 14.66605532212062
1 27376U 02005E   06029.55998656 -.00000496  00000-0 -93681-4 0  9994
2 27376 086.5741 224.1088 0002409 078.2023 281.9482 14.66604599212201
1 27376U 02005E   06029.55998656 -.00000496  00000-0 -93681-4 0  9994
2 27376 086.5741 224.1088 0002409 078.2023 281.9482 14.66604599212201
1 27376U 02005E   06029.90113225 -.00000468 +00000-0 -88615-4 0  9994
2 27376 086.5740 223.9660 0002397 077.6973 282.4515 14.66604365212255
1 27376U 02005E   06030.10581981 -.00000351  00000-0 -67530-4 0  9990
2 27376 086.5744 223.8808 0002454 079.9239 280.2281 14.66604858212282
1 27376U 02005E   06031.19748564 -.00000038  00000-0 -11056-4 0  9996
2 27376 086.5742 223.4245 0002447 078.5456 281.6055 14.66605747212449
1 27376U 02005E   06031.60685970 +.00000076 +00000-0 +94001-5 0  9995
2 27376 086.5741 223.2532 0002399 080.1994 279.9490 14.66606181212500
1 27376U 02005E   06032.08446365  .00000145  00000-0  21865-4 0  9995
2 27376 086.5746 223.0538 0002404 080.2818 279.8684 14.66606599212576
1 27376U 02005E   06032.90321250 +.00000142 +00000-0 +21399-4 0  9990
2 27376 086.5742 222.7113 0002389 079.9759 280.1724 14.66606822212690
1 27376U 02005E   06033.17612891  .00000105  00000-0  14724-4 0  9997
2 27376 086.5746 222.5976 0002386 080.6693 279.4786 14.66606690212739
1 27376U 02005E   06033.17612891  .00000105  00000-0  14724-4 0  9997
2 27376 086.5746 222.5976 0002386 080.6693 279.4786 14.66606690212739
1 27376U 02005E   06033.92664985 -.00000038 +00000-0 -11135-4 0  9991
2 27376 086.5751 222.2841 0002368 084.4258 275.7223 14.66605852212848
1 27376U 02005E   06034.06310822 -.00000132  00000-0 -28114-4 0  9995
2 27376 086.5752 222.2271 0002353 085.8252 274.3222 14.66605395212867
1 27376U 02005E   06034.60894178 -.00000125 +00000-0 -26734-4 0  9994
2 27376 086.5753 221.9987 0002354 083.7196 276.4290 14.66605312212949
1 27376U 02005E   06035.08654597 -.00000121  00000-0 -26082-4 0  9998
2 27376 086.5755 221.7992 0002372 084.4747 275.6753 14.66605315213012
1 27376U 02005E   06035.49592078 -.00000102  00000-0 -22572-4 0  9997
2 27376 086.5755 221.6279 0002364 083.1540 276.9950 14.66605324213076
1 27376U 02005E   06035.56414982 -.00000098 +00000-0 -21893-4 0  9991
2 27376 086.5754 221.5994 0002361 082.9091 277.2397 14.66605377213081
1 27376U 02005E   06036.51935783 -.00000026  00000-0 -88764-5 0  9996
2 27376 086.5756 221.2000 0002357 081.8506 278.2981 14.66605603213220
1 27376U 02005E   06036.58758689 +.00000046 +00000-0 +39827-5 0  9997
2 27376 086.5758 221.1714 0002337 082.8445 277.3045 14.66605875213237
1 27376U 02005E   06037.06519039  .00000161  00000-0  24794-4 0  9999
2 27376 086.5762 220.9721 0002370 083.1519 276.9965 14.66606451213305
1 27376U 02005E   06037.61102337 +.00000195 +00000-0 +30827-4 0  9990
2 27376 086.5760 220.7438 0002351 082.9686 277.1812 14.66606822213381
1 27376U 02005E   06038.49800143  .00000110  00000-0  15537-4 0  9995
2 27376 086.5758 220.3732 0002346 081.0652 279.0820 14.66606701213519
1 27376U 02005E   06038.49800143  .00000110  00000-0  15537-4 0  9995
2 27376 086.5758 220.3732 0002346 081.0652 279.0820 14.66606701213519
1 27376U 02005E   06038.56623069 +.00000071 +00000-0 +85014-5 0  9997
2 27376 086.5757 220.3447 0002358 081.5014 278.6458 14.66606501213522
